CCSDS_OMM_VERS = 2.0
CREATION_DATE  = 
ORIGINATOR     = 

OBJECT_NAME    = STARLINK-36179
OBJECT_ID      = 2025-299T
CENTER_NAME    = EARTH
REF_FRAME      = TEME
TIME_SYSTEM    = UTC
MEAN_ELEMENT_THEORY = SGP/SGP4

EPOCH          = 2026-01-10T18:40:19.437600
MEAN_MOTION    = 15.40696621
ECCENTRICITY   = .0001557
INCLINATION    = 42.9990
RA_OF_ASC_NODE = 142.6058
ARG_OF_PERICENTER = 279.7916
MEAN_ANOMALY   = 80.2765

EPHEMERIS_TYPE = 0
CLASSIFICATION_TYPE = U
NORAD_CAT_ID   = 67119
ELEMENT_SET_NO = 999
REV_AT_EPOCH   = 418
BSTAR          = .10557818E-2
MEAN_MOTION_DOT = .44049E-3
MEAN_MOTION_DDOT = 0

CCSDS_OMM_VERS = 2.0
CREATION_DATE  = 
ORIGINATOR     = 

OBJECT_NAME    = STARLINK-36217
OBJECT_ID      = 2025-299U
CENTER_NAME    = EARTH
REF_FRAME      = TEME
TIME_SYSTEM    = UTC
MEAN_ELEMENT_THEORY = SGP/SGP4

EPOCH          = 2026-01-08T16:14:00.996288
MEAN_MOTION    = 15.50607380
ECCENTRICITY   = .0001512
INCLINATION    = 42.9998
RA_OF_ASC_NODE = 154.3494
ARG_OF_PERICENTER = 264.5920
MEAN_ANOMALY   = 95.4768

EPHEMERIS_TYPE = 0
CLASSIFICATION_TYPE = U
NORAD_CAT_ID   = 67120
ELEMENT_SET_NO = 999
REV_AT_EPOCH   = 386
BSTAR          = .17151E-2
MEAN_MOTION_DOT = .101697E-2
MEAN_MOTION_DDOT = 0

CCSDS_OMM_VERS = 2.0
CREATION_DATE  = 
ORIGINATOR     = 

OBJECT_NAME    = STARLINK-36124
OBJECT_ID      = 2025-299V
CENTER_NAME    = EARTH
REF_FRAME      = TEME
TIME_SYSTEM    = UTC
MEAN_ELEMENT_THEORY = SGP/SGP4

EPOCH          = 2026-01-10T22:00:01.999584
MEAN_MOTION    = 15.40757241
ECCENTRICITY   = .00013467
INCLINATION    = 43.0001
RA_OF_ASC_NODE = 141.4756
ARG_OF_PERICENTER = 268.0707
MEAN_ANOMALY   = 279.1027

EPHEMERIS_TYPE = 0
CLASSIFICATION_TYPE = U
NORAD_CAT_ID   = 67121
ELEMENT_SET_NO = 999
REV_AT_EPOCH   = 549
BSTAR          = -.32747451E-2
MEAN_MOTION_DOT = -.134962E-2
MEAN_MOTION_DDOT = 0

CCSDS_OMM_VERS = 2.0
CREATION_DATE  = 
ORIGINATOR     = 

OBJECT_NAME    = STARLINK-36188
OBJECT_ID      = 2025-299W
CENTER_NAME    = EARTH
REF_FRAME      = TEME
TIME_SYSTEM    = UTC
MEAN_ELEMENT_THEORY = SGP/SGP4

EPOCH          = 2026-01-10T22:00:01.999584
MEAN_MOTION    = 15.40671269
ECCENTRICITY   = .00020986
INCLINATION    = 43.0000
RA_OF_ASC_NODE = 141.5367
ARG_OF_PERICENTER = 289.9916
MEAN_ANOMALY   = 232.2104

EPHEMERIS_TYPE = 0
CLASSIFICATION_TYPE = U
NORAD_CAT_ID   = 67122
ELEMENT_SET_NO = 999
REV_AT_EPOCH   = 549
BSTAR          = .10937175E-2
MEAN_MOTION_DOT = .45615E-3
MEAN_MOTION_DDOT = 0

CCSDS_OMM_VERS = 2.0
CREATION_DATE  = 
ORIGINATOR     = 

OBJECT_NAME    = STARLINK-36151
OBJECT_ID      = 2025-299X
CENTER_NAME    = EARTH
REF_FRAME      = TEME
TIME_SYSTEM    = UTC
MEAN_ELEMENT_THEORY = SGP/SGP4

EPOCH          = 2026-01-10T20:07:12.772128
MEAN_MOTION    = 15.40729188
ECCENTRICITY   = .00030024
INCLINATION    = 43.0017
RA_OF_ASC_NODE = 142.2004
ARG_OF_PERICENTER = 261.3629
MEAN_ANOMALY   = 98.6887

EPHEMERIS_TYPE = 0
CLASSIFICATION_TYPE = U
NORAD_CAT_ID   = 67123
ELEMENT_SET_NO = 999
REV_AT_EPOCH   = 419
BSTAR          = .12523046E-2
MEAN_MOTION_DOT = .52424E-3
MEAN_MOTION_DDOT = 0

CCSDS_OMM_VERS = 2.0
CREATION_DATE  = 
ORIGINATOR     = 

OBJECT_NAME    = STARLINK-36195
OBJECT_ID      = 2025-299Y
CENTER_NAME    = EARTH
REF_FRAME      = TEME
TIME_SYSTEM    = UTC
MEAN_ELEMENT_THEORY = SGP/SGP4

EPOCH          = 2026-01-10T22:00:01.999584
MEAN_MOTION    = 15.40674585
ECCENTRICITY   = .00013782
INCLINATION    = 42.9997
RA_OF_ASC_NODE = 141.5976
ARG_OF_PERICENTER = 278.0822
MEAN_ANOMALY   = 219.2281

EPHEMERIS_TYPE = 0
CLASSIFICATION_TYPE = U
NORAD_CAT_ID   = 67124
ELEMENT_SET_NO = 999
REV_AT_EPOCH   = 549
BSTAR          = .1186016E-2
MEAN_MOTION_DOT = .49519E-3
MEAN_MOTION_DDOT = 0

CCSDS_OMM_VERS = 2.0
CREATION_DATE  = 
ORIGINATOR     = 

OBJECT_NAME    = STARLINK-36219
OBJECT_ID      = 2025-299Z
CENTER_NAME    = EARTH
REF_FRAME      = TEME
TIME_SYSTEM    = UTC
MEAN_ELEMENT_THEORY = SGP/SGP4

EPOCH          = 2026-01-08T16:11:08.282688
MEAN_MOTION    = 15.50640851
ECCENTRICITY   = .0004222
INCLINATION    = 43.0013
RA_OF_ASC_NODE = 154.3327
ARG_OF_PERICENTER = 143.9749
MEAN_ANOMALY   = 216.1396

EPHEMERIS_TYPE = 0
CLASSIFICATION_TYPE = U
NORAD_CAT_ID   = 67125
ELEMENT_SET_NO = 999
REV_AT_EPOCH   = 386
BSTAR          = .20054E-2
MEAN_MOTION_DOT = .119407E-2
MEAN_MOTION_DDOT = 0

CCSDS_OMM_VERS = 2.0
CREATION_DATE  = 
ORIGINATOR     = 

OBJECT_NAME    = STARLINK-36223
OBJECT_ID      = 2025-299AA
CENTER_NAME    = EARTH
REF_FRAME      = TEME
TIME_SYSTEM    = UTC
MEAN_ELEMENT_THEORY = SGP/SGP4

EPOCH          = 2026-01-08T16:10:27.279840
MEAN_MOTION    = 15.50800128
ECCENTRICITY   = .0002014
INCLINATION    = 42.9996
RA_OF_ASC_NODE = 154.3292
ARG_OF_PERICENTER = 272.3410
MEAN_ANOMALY   = 87.7219

EPHEMERIS_TYPE = 0
CLASSIFICATION_TYPE = U
NORAD_CAT_ID   = 67126
ELEMENT_SET_NO = 999
REV_AT_EPOCH   = 386
BSTAR          = .17526E-2
MEAN_MOTION_DOT = .104688E-2
MEAN_MOTION_DDOT = 0

CCSDS_OMM_VERS = 2.0
CREATION_DATE  = 
ORIGINATOR     = 

OBJECT_NAME    = STARLINK-36164
OBJECT_ID      = 2025-299AB
CENTER_NAME    = EARTH
REF_FRAME      = TEME
TIME_SYSTEM    = UTC
MEAN_ELEMENT_THEORY = SGP/SGP4

EPOCH          = 2026-01-08T16:10:04.039968
MEAN_MOTION    = 15.50601043
ECCENTRICITY   = .0001707
INCLINATION    = 43.0010
RA_OF_ASC_NODE = 154.3276
ARG_OF_PERICENTER = 270.6558
MEAN_ANOMALY   = 89.4106

EPHEMERIS_TYPE = 0
CLASSIFICATION_TYPE = U
NORAD_CAT_ID   = 67127
ELEMENT_SET_NO = 999
REV_AT_EPOCH   = 386
BSTAR          = .17191E-2
MEAN_MOTION_DOT = .101915E-2
MEAN_MOTION_DDOT = 0

CCSDS_OMM_VERS = 2.0
CREATION_DATE  = 
ORIGINATOR     = 

OBJECT_NAME    = STARLINK-35685
OBJECT_ID      = 2025-299AC
CENTER_NAME    = EARTH
REF_FRAME      = TEME
TIME_SYSTEM    = UTC
MEAN_ELEMENT_THEORY = SGP/SGP4

EPOCH          = 2026-01-10T00:00:02.000160
MEAN_MOTION    = 15.40681591
ECCENTRICITY   = .00020413
INCLINATION    = 42.9998
RA_OF_ASC_NODE = 146.9669
ARG_OF_PERICENTER = 280.6310
MEAN_ANOMALY   = 129.0169

EPHEMERIS_TYPE = 0
CLASSIFICATION_TYPE = U
NORAD_CAT_ID   = 67128
ELEMENT_SET_NO = 999
REV_AT_EPOCH   = 535
BSTAR          = .28441018E-3
MEAN_MOTION_DOT = .11588E-3
MEAN_MOTION_DDOT = 0

CCSDS_OMM_VERS = 2.0
CREATION_DATE  = 
ORIGINATOR     = 

OBJECT_NAME    = STARLINK-36214
OBJECT_ID      = 2025-299AD
CENTER_NAME    = EARTH
REF_FRAME      = TEME
TIME_SYSTEM    = UTC
MEAN_ELEMENT_THEORY = SGP/SGP4

EPOCH          = 2026-01-08T16:09:34.318368
MEAN_MOTION    = 15.50591951
ECCENTRICITY   = .0001765
INCLINATION    = 43.0008
RA_OF_ASC_NODE = 154.3242
ARG_OF_PERICENTER = 264.6094
MEAN_ANOMALY   = 95.4565

EPHEMERIS_TYPE = 0
CLASSIFICATION_TYPE = U
NORAD_CAT_ID   = 67129
ELEMENT_SET_NO = 999
REV_AT_EPOCH   = 386
BSTAR          = .16687E-2
MEAN_MOTION_DOT = .98845E-3
MEAN_MOTION_DDOT = 0

CCSDS_OMM_VERS = 2.0
CREATION_DATE  = 
ORIGINATOR     = 

OBJECT_NAME    = STARLINK-36194
OBJECT_ID      = 2025-299AE
CENTER_NAME    = EARTH
REF_FRAME      = TEME
TIME_SYSTEM    = UTC
MEAN_ELEMENT_THEORY = SGP/SGP4

EPOCH          = 2026-01-09T13:54:54.697536
MEAN_MOTION    = 15.41526050
ECCENTRICITY   = .00029639
INCLINATION    = 43.0017
RA_OF_ASC_NODE = 149.0895
ARG_OF_PERICENTER = 307.2602
MEAN_ANOMALY   = 52.7984

EPHEMERIS_TYPE = 0
CLASSIFICATION_TYPE = U
NORAD_CAT_ID   = 67130
ELEMENT_SET_NO = 999
REV_AT_EPOCH   = 400
BSTAR          = .16517479E-1
MEAN_MOTION_DOT = .762282E-2
MEAN_MOTION_DDOT = 0

