STARLINK-36179          
1 67119U 25299T   26010.77800275  .00044049  00000+0  10558-2 0  9997
2 67119  42.9990 142.6058 0001557 279.7916  80.2765 15.40696621  4185
STARLINK-36217          
1 67120U 25299U   26008.67640042  .00101697  00000+0  17151-2 0  9998
2 67120  42.9998 154.3494 0001512 264.5920  95.4768 15.50607380  3867
STARLINK-36124          
1 67121U 25299V   26010.91668981 -.00134962  00000+0 -32747-2 0  9992
2 67121  43.0001 141.4756 0001346 268.0707 279.1027 15.40757241  5491
STARLINK-36188          
1 67122U 25299W   26010.91668981  .00045615  00000+0  10937-2 0  9994
2 67122  43.0000 141.5367 0002098 289.9916 232.2104 15.40671269  5490
STARLINK-36151          
1 67123U 25299X   26010.83834227  .00052424  00000+0  12523-2 0  9993
2 67123  43.0017 142.2004 0003002 261.3629  98.6887 15.40729188  4198
STARLINK-36195          
1 67124U 25299Y   26010.91668981  .00049519  00000+0  11860-2 0  9999
2 67124  42.9997 141.5976 0001378 278.0822 219.2281 15.40674585  5491
STARLINK-36219          
1 67125U 25299Z   26008.67440142  .00119407  00000+0  20054-2 0  9996
2 67125  43.0013 154.3327 0004222 143.9749 216.1396 15.50640851  3866
STARLINK-36223          
1 67126U 25299AA  26008.67392685  .00104688  00000+0  17526-2 0  9990
2 67126  42.9996 154.3292 0002014 272.3410  87.7219 15.50800128  3866
STARLINK-36164          
1 67127U 25299AB  26008.67365787  .00101915  00000+0  17191-2 0  9992
2 67127  43.0010 154.3276 0001707 270.6558  89.4106 15.50601043  3869
STARLINK-35685          
1 67128U 25299AC  26010.00002315  .00011588  00000+0  28441-3 0  9995
2 67128  42.9998 146.9669 0002041 280.6310 129.0169 15.40681591  5356
STARLINK-36214          
1 67129U 25299AD  26008.67331387  .00098845  00000+0  16687-2 0  9999
2 67129  43.0008 154.3242 0001765 264.6094  95.4565 15.50591951  3865
STARLINK-36194          
1 67130U 25299AE  26009.57979974  .00762282  00000+0  16517-1 0  9995
2 67130  43.0017 149.0895 0002963 307.2602  52.7984 15.41526050  4008
